{
"type": "FeatureCollection",
"name": "847887_contours_to_read",
"crs": { "type": "name", "properties": { "name": "urn:ogc:def:crs:EPSG::26917" } },
"features": [
{ "type": "Feature", "properties": { "ID": 1, "len_m": 4404, "depth_into_pit_m": 422, "elev_ft": "3490" }, "geometry": { "type": "Point", "coordinates": [ 646501.099999999976717, 4341101.900000000372529 ] } },
{ "type": "Feature", "properties": { "ID": 2, "len_m": 754, "depth_into_pit_m": 161, "elev_ft": null }, "geometry": { "type": "Point", "coordinates": [ 646668.5, 4340789.299999999813735 ] } },
{ "type": "Feature", "properties": { "ID": 3, "len_m": 108, "depth_into_pit_m": 334, "elev_ft": "3500" }, "geometry": { "type": "Point", "coordinates": [ 646404.099999999976717, 4341208.700000000186265 ] } },
{ "type": "Feature", "properties": { "ID": 4, "len_m": 460, "depth_into_pit_m": 139, "elev_ft": null }, "geometry": { "type": "Point", "coordinates": [ 646643.900000000023283, 4340770.5 ] } },
{ "type": "Feature", "properties": { "ID": 5, "len_m": 97, "depth_into_pit_m": 279, "elev_ft": "3540" }, "geometry": { "type": "Point", "coordinates": [ 646397.900000000023283, 4340979.0 ] } },
{ "type": "Feature", "properties": { "ID": 6, "len_m": 139, "depth_into_pit_m": 208, "elev_ft": "3500" }, "geometry": { "type": "Point", "coordinates": [ 646283.5, 4341161.299999999813735 ] } },
{ "type": "Feature", "properties": { "ID": 7, "len_m": 399, "depth_into_pit_m": 75, "elev_ft": null }, "geometry": { "type": "Point", "coordinates": [ 645547.199999999953434, 4341418.400000000372529 ] } },
{ "type": "Feature", "properties": { "ID": 8, "len_m": 177, "depth_into_pit_m": 186, "elev_ft": null }, "geometry": { "type": "Point", "coordinates": [ 646304.900000000023283, 4340903.799999999813735 ] } },
{ "type": "Feature", "properties": { "ID": 9, "len_m": 356, "depth_into_pit_m": 81, "elev_ft": null }, "geometry": { "type": "Point", "coordinates": [ 645772.599999999976717, 4341410.0 ] } },
{ "type": "Feature", "properties": { "ID": 10, "len_m": 320, "depth_into_pit_m": 88, "elev_ft": null }, "geometry": { "type": "Point", "coordinates": [ 646208.599999999976717, 4340825.400000000372529 ] } },
{ "type": "Feature", "properties": { "ID": 11, "len_m": 148, "depth_into_pit_m": 171, "elev_ft": "3440" }, "geometry": { "type": "Point", "coordinates": [ 646112.199999999953434, 4341378.5 ] } },
{ "type": "Feature", "properties": { "ID": 12, "len_m": 245, "depth_into_pit_m": 119, "elev_ft": null }, "geometry": { "type": "Point", "coordinates": [ 646594.199999999953434, 4340761.099999999627471 ] } },
{ "type": "Feature", "properties": { "ID": 13, "len_m": 107, "depth_into_pit_m": 179, "elev_ft": "3480" }, "geometry": { "type": "Point", "coordinates": [ 646243.699999999953434, 4341009.0 ] } },
{ "type": "Feature", "properties": { "ID": 14, "len_m": 267, "depth_into_pit_m": 94, "elev_ft": "3420" }, "geometry": { "type": "Point", "coordinates": [ 646859.800000000046566, 4341301.400000000372529 ] } },
{ "type": "Feature", "properties": { "ID": 15, "len_m": 273, "depth_into_pit_m": 89, "elev_ft": null }, "geometry": { "type": "Point", "coordinates": [ 646322.699999999953434, 4340801.200000000186265 ] } },
{ "type": "Feature", "properties": { "ID": 16, "len_m": 296, "depth_into_pit_m": 75, "elev_ft": "3440" }, "geometry": { "type": "Point", "coordinates": [ 646075.699999999953434, 4341287.0 ] } },
{ "type": "Feature", "properties": { "ID": 17, "len_m": 295, "depth_into_pit_m": 71, "elev_ft": null }, "geometry": { "type": "Point", "coordinates": [ 645911.0, 4341360.200000000186265 ] } },
{ "type": "Feature", "properties": { "ID": 18, "len_m": 192, "depth_into_pit_m": 120, "elev_ft": "3540" }, "geometry": { "type": "Point", "coordinates": [ 646206.599999999976717, 4340888.200000000186265 ] } },
{ "type": "Feature", "properties": { "ID": 19, "len_m": 220, "depth_into_pit_m": 102, "elev_ft": null }, "geometry": { "type": "Point", "coordinates": [ 646388.900000000023283, 4340797.900000000372529 ] } },
{ "type": "Feature", "properties": { "ID": 20, "len_m": 199, "depth_into_pit_m": 100, "elev_ft": "3420" }, "geometry": { "type": "Point", "coordinates": [ 646915.0, 4341162.599999999627471 ] } },
{ "type": "Feature", "properties": { "ID": 21, "len_m": 212, "depth_into_pit_m": 86, "elev_ft": "3440" }, "geometry": { "type": "Point", "coordinates": [ 646884.800000000046566, 4341016.900000000372529 ] } },
{ "type": "Feature", "properties": { "ID": 22, "len_m": 192, "depth_into_pit_m": 95, "elev_ft": "3480" }, "geometry": { "type": "Point", "coordinates": [ 646861.699999999953434, 4340971.099999999627471 ] } },
{ "type": "Feature", "properties": { "ID": 23, "len_m": 204, "depth_into_pit_m": 88, "elev_ft": "3480" }, "geometry": { "type": "Point", "coordinates": [ 646814.800000000046566, 4340856.599999999627471 ] } },
{ "type": "Feature", "properties": { "ID": 24, "len_m": 215, "depth_into_pit_m": 80, "elev_ft": null }, "geometry": { "type": "Point", "coordinates": [ 646715.5, 4340691.5 ] } },
{ "type": "Feature", "properties": { "ID": 25, "len_m": 188, "depth_into_pit_m": 93, "elev_ft": null }, "geometry": { "type": "Point", "coordinates": [ 645838.699999999953434, 4341411.099999999627471 ] } },
{ "type": "Feature", "properties": { "ID": 26, "len_m": 186, "depth_into_pit_m": 91, "elev_ft": "3560" }, "geometry": { "type": "Point", "coordinates": [ 646574.0, 4340738.0 ] } },
{ "type": "Feature", "properties": { "ID": 27, "len_m": 180, "depth_into_pit_m": 93, "elev_ft": null }, "geometry": { "type": "Point", "coordinates": [ 646924.400000000023283, 4341117.200000000186265 ] } },
{ "type": "Feature", "properties": { "ID": 28, "len_m": 215, "depth_into_pit_m": 70, "elev_ft": null }, "geometry": { "type": "Point", "coordinates": [ 645657.699999999953434, 4341419.099999999627471 ] } }
]
}
