{"type":"FeatureCollection","crs":{"type":"name","properties":{"name":"EPSG:3857"}},"features":[{"type":"Feature","id":543355,"geometry":{"type":"Point","coordinates":[-8824359.2424999997,4748227.3180999979]},"properties":{"objectid":543355}},{"type":"Feature","id":543505,"geometry":{"type":"Point","coordinates":[-8825071.7533999998,4740980.5733999982]},"properties":{"objectid":543505}},{"type":"Feature","id":543896,"geometry":{"type":"Point","coordinates":[-8825201.0684999991,4748214.6476000026]},"properties":{"objectid":543896}},{"type":"Feature","id":543897,"geometry":{"type":"Point","coordinates":[-8825421.3093999997,4748253.0830999985]},"properties":{"objectid":543897}},{"type":"Feature","id":544069,"geometry":{"type":"Point","coordinates":[-8825895.0919000003,4741317.5276999995]},"properties":{"objectid":544069}},{"type":"Feature","id":544071,"geometry":{"type":"Point","coordinates":[-8825090.9765000008,4741138.235799998]},"properties":{"objectid":544071}},{"type":"Feature","id":544072,"geometry":{"type":"Point","coordinates":[-8827184.8682000004,4743685.1028999984]},"properties":{"objectid":544072}},{"type":"Feature","id":544474,"geometry":{"type":"Point","coordinates":[-8824991.1312000006,4747920.3079999983]},"properties":{"objectid":544474}},{"type":"Feature","id":544623,"geometry":{"type":"Point","coordinates":[-8824336.1973999999,4744722.7199999988]},"properties":{"objectid":544623}},{"type":"Feature","id":544629,"geometry":{"type":"Point","coordinates":[-8825770.7711999994,4744056.2097000033]},"properties":{"objectid":544629}},{"type":"Feature","id":544630,"geometry":{"type":"Point","coordinates":[-8824909.4310999997,4743127.8740999997]},"properties":{"objectid":544630}},{"type":"Feature","id":544632,"geometry":{"type":"Point","coordinates":[-8828428.9473999999,4740160.939199999]},"properties":{"objectid":544632}},{"type":"Feature","id":544970,"geometry":{"type":"Point","coordinates":[-8828489.4432999995,4739392.8056000024]},"properties":{"objectid":544970}},{"type":"Feature","id":545047,"geometry":{"type":"Point","coordinates":[-8824769.1117000002,4748263.9204000011]},"properties":{"objectid":545047}},{"type":"Feature","id":545191,"geometry":{"type":"Point","coordinates":[-8825957.2836000007,4748156.677699998]},"properties":{"objectid":545191}},{"type":"Feature","id":545192,"geometry":{"type":"Point","coordinates":[-8825037.1030000001,4747050.4091999978]},"properties":{"objectid":545192}},{"type":"Feature","id":545193,"geometry":{"type":"Point","coordinates":[-8824980.3050999995,4746202.6278999969]},"properties":{"objectid":545193}},{"type":"Feature","id":545194,"geometry":{"type":"Point","coordinates":[-8824393.4843000006,4745353.5688999966]},"properties":{"objectid":545194}},{"type":"Feature","id":545197,"geometry":{"type":"Point","coordinates":[-8826154.1975999996,4739623.8975000009]},"properties":{"objectid":545197}},{"type":"Feature","id":545200,"geometry":{"type":"Point","coordinates":[-8827441.0801999997,4743212.7318999991]},"properties":{"objectid":545200}},{"type":"Feature","id":545201,"geometry":{"type":"Point","coordinates":[-8826970.7652000003,4742896.3618000001]},"properties":{"objectid":545201}},{"type":"Feature","id":545205,"geometry":{"type":"Point","coordinates":[-8827483.8969000001,4741616.7740999982]},"properties":{"objectid":545205}},{"type":"Feature","id":545509,"geometry":{"type":"Point","coordinates":[-8827822.2212000005,4739470.1406999975]},"properties":{"objectid":545509}},{"type":"Feature","id":545582,"geometry":{"type":"Point","coordinates":[-8824371.3254000004,4747519.5324999988]},"properties":{"objectid":545582}},{"type":"Feature","id":545726,"geometry":{"type":"Point","coordinates":[-8824297.6349999998,4744446.6961999983]},"properties":{"objectid":545726}},{"type":"Feature","id":545731,"geometry":{"type":"Point","coordinates":[-8825344.9185000006,4741611.7300999984]},"properties":{"objectid":545731}},{"type":"Feature","id":545735,"geometry":{"type":"Point","coordinates":[-8824266.3772999998,4745156.1419999972]},"properties":{"objectid":545735}},{"type":"Feature","id":546029,"geometry":{"type":"Point","coordinates":[-8825212.5449999999,4748401.1226999983]},"properties":{"objectid":546029}},{"type":"Feature","id":546255,"geometry":{"type":"Point","coordinates":[-8825291.0067999996,4747603.0335000008]},"properties":{"objectid":546255}},{"type":"Feature","id":546256,"geometry":{"type":"Point","coordinates":[-8825571.9060999993,4745120.0037999973]},"properties":{"objectid":546256}},{"type":"Feature","id":546257,"geometry":{"type":"Point","coordinates":[-8823254.5711000003,4745468.8452999964]},"properties":{"objectid":546257}},{"type":"Feature","id":546258,"geometry":{"type":"Point","coordinates":[-8825189.9169999994,4740803.561499998]},"properties":{"objectid":546258}},{"type":"Feature","id":546265,"geometry":{"type":"Point","coordinates":[-8828252.4436000008,4740121.1564000025]},"properties":{"objectid":546265}},{"type":"Feature","id":546266,"geometry":{"type":"Point","coordinates":[-8824654.4311999995,4743068.112999998]},"properties":{"objectid":546266}},{"type":"Feature","id":546270,"geometry":{"type":"Point","coordinates":[-8826025.2912000008,4744332.7349999994]},"properties":{"objectid":546270}},{"type":"Feature","id":546271,"geometry":{"type":"Point","coordinates":[-8828173.4905999992,4740337.6938999966]},"properties":{"objectid":546271}},{"type":"Feature","id":546464,"geometry":{"type":"Point","coordinates":[-8825025.8728999998,4743660.244099997]},"properties":{"objectid":546464}},{"type":"Feature","id":546599,"geometry":{"type":"Point","coordinates":[-8827586.7355000004,4739489.3106999993]},"properties":{"objectid":546599}},{"type":"Feature","id":546671,"geometry":{"type":"Point","coordinates":[-8824374.0818000007,4747877.0111000016]},"properties":{"objectid":546671}},{"type":"Feature","id":546821,"geometry":{"type":"Point","coordinates":[-8826766.5155999996,4746364.634800002]},"properties":{"objectid":546821}},{"type":"Feature","id":546822,"geometry":{"type":"Point","coordinates":[-8824431.2445,4745944.9858999997]},"properties":{"objectid":546822}},{"type":"Feature","id":546824,"geometry":{"type":"Point","coordinates":[-8825029.6261999998,4742142.9312999994]},"properties":{"objectid":546824}},{"type":"Feature","id":546825,"geometry":{"type":"Point","coordinates":[-8825145.1939000003,4743029.9346000031]},"properties":{"objectid":546825}},{"type":"Feature","id":546830,"geometry":{"type":"Point","coordinates":[-8826209.7585000005,4741022.7485999987]},"properties":{"objectid":546830}},{"type":"Feature","id":546832,"geometry":{"type":"Point","coordinates":[-8826438.1418999992,4744057.8090000004]},"properties":{"objectid":546832}},{"type":"Feature","id":546833,"geometry":{"type":"Point","coordinates":[-8826535.2317999993,4744511.3247999996]},"properties":{"objectid":546833}},{"type":"Feature","id":547372,"geometry":{"type":"Point","coordinates":[-8825899.4570000004,4747703.0932999998]},"properties":{"objectid":547372}},{"type":"Feature","id":547373,"geometry":{"type":"Point","coordinates":[-8825649.4293000009,4745534.0940999985]},"properties":{"objectid":547373}},{"type":"Feature","id":547378,"geometry":{"type":"Point","coordinates":[-8824917.3361000009,4747838.6790999994]},"properties":{"objectid":547378}},{"type":"Feature","id":547384,"geometry":{"type":"Point","coordinates":[-8827017.4114999995,4739645.6097000018]},"properties":{"objectid":547384}},{"type":"Feature","id":547385,"geometry":{"type":"Point","coordinates":[-8826207.1528999992,4742126.1049999967]},"properties":{"objectid":547385}},{"type":"Feature","id":547387,"geometry":{"type":"Point","coordinates":[-8825205.7608000003,4742340.4095000029]},"properties":{"objectid":547387}},{"type":"Feature","id":547388,"geometry":{"type":"Point","coordinates":[-8827035.9211999997,4740138.1459000036]},"properties":{"objectid":547388}}]}