{"type":"FeatureCollection","crs":{"type":"name","properties":{"name":"EPSG:3857"}},"features":[{"type":"Feature","id":1287130,"geometry":{"type":"Polygon","coordinates":[[[-8826880.4464999996,4741938.3941000029],[-8826876.6585000008,4741937.6193000004],[-8826855.6645999998,4741933.3255999982],[-8826813.5614,4741932.5302999988],[-8826801.6822999995,4741961.5847999975],[-8826806.5541999992,4741977.2216000035],[-8826801.7342000008,4741978.0617000014],[-8826828.0781999994,4742009.4679000005],[-8826896.6361999996,4742047.4782000035],[-8826940.1900999993,4742085.0031000003],[-8826987.4495000001,4742130.3316999972],[-8827028.7601999994,4742185.2087000012],[-8827070.4688000008,4742218.8448000029],[-8827106.5770999994,4742242.7145000026],[-8827154.1993000004,4742268.7282000035],[-8827190.3081999999,4742292.5847000033],[-8827237.8585999999,4742322.4636999965],[-8827286.8222000003,4742379.4249000028],[-8827324.2134000007,4742438.0821999982],[-8827351.5889999997,4742517.8259999976],[-8827384.2647999991,4742622.7735999972],[-8827409.6147000007,4742708.2616999969],[-8827437.3036000002,4742770.6177999973],[-8827467.1900999993,4742819.4742000028],[-8827506.2498000003,4742891.7062999979],[-8827541.3517000005,4742969.6585000008],[-8827576.3230000008,4743055.3303000033],[-8827616.9427000005,4743146.9033000022],[-8827634.7032999992,4743226.4579999968],[-8827648.5546000004,4743309.807099998],[-8827647.5090999994,4743365.8312000036],[-8827588.7826000005,4743418.8299999982],[-8827499.0617999993,4743482.8343999982],[-8827407.3718999997,4743548.7414999977],[-8827303.7942999993,4743633.7353999987],[-8827225.5721000005,4743699.8955999985],[-8827135.6656999998,4743773.5571999997],[-8827049.8255000003,4743835.7057000026],[-8826975.7400000002,4743886.4861999974],[-8826939.9890999999,4743945.7124999985],[-8826919.8081999999,4743995.5706999972],[-8826880.5316000003,4744037.3461999968],[-8826821.6886999998,4744096.1366999969],[-8826768.6508000009,4744153.1096000001],[-8826748.9757000003,4744175.9305000007],[-8826708.5036999993,4744179.0200000033],[-8826618.3741999995,4744161.8576999977],[-8826530.3090000004,4744136.9985999987],[-8826478.3576999996,4744136.0151000023],[-8826481.4463,4744176.6642000005],[-8826484.6804000009,4744209.5680000037],[-8826508.8924000002,4744252.5446000025],[-8826516.1383999996,4744270.9732000008],[-8826527.2624999993,4744299.2655000016],[-8826555.6155999992,4744326.8628999963],[-8826607.2651000004,4744343.2981000021],[-8826666.6162,4744359.878700003],[-8826735.8905999996,4744361.188699998],[-8826838.5029000007,4744328.3448000029],[-8826840.3743999992,4744327.2365999967],[-8826843.2671000008,4744319.366899997],[-8826890.0347000007,4744274.1442999989],[-8826906.9888000004,4744261.0239000022],[-8826959.1489000004,4744227.5201999992],[-8826991.9988000002,4744196.0848999992],[-8827064.5623000003,4744139.1925999969],[-8827153.0251000002,4744063.2511000037],[-8827214.3041999992,4744019.1722000018],[-8827233.7665999997,4744009.766900003],[-8827261.8552999999,4743989.6481000036],[-8827351.1381000001,4743933.4680000022],[-8827377.0056999996,4743927.9963999987],[-8827389.8793000001,4743928.4852000028],[-8827402.8493000008,4743923.8127999976],[-8827428.9217000008,4743907.3805999979],[-8827468.9613000005,4743875.990199998],[-8827507.2266000006,4743853.3642999977],[-8827528.9737,4743831.1831],[-8827599.9057,4743810.5358000025],[-8827685.3468999993,4743738.2644999996],[-8827805.8881999999,4743664.3924999982],[-8827825.1701999996,4743661.9936000034],[-8827858.9452,4743644.7976000011],[-8827911.1183000002,4743610.255400002],[-8827940.0642000008,4743586.5454000011],[-8827957.7945000008,4743566.6789999977],[-8827969.5917000007,4743550.5173000023],[-8827994.7777999993,4743509.9664999992],[-8828002.0910999998,4743493.3945000023],[-8827971.5577000007,4743293.3034000024],[-8827959.5504000001,4743276.4886000007],[-8827949.5177999996,4743244.5870999992],[-8827928.3643999994,4743201.563699998],[-8827912.4397999998,4743178.8747000024],[-8827879.2162999995,4743145.6393999979],[-8827851.4601000007,4743041.6469999999],[-8827836.9178999998,4742976.7049999982],[-8827807.8410999998,4742931.1194999963],[-8827772.6492999997,4742882.4083999991],[-8827702.4837999996,4742754.3069999963],[-8827657.8411999997,4742685.8118000031],[-8827645.3764999993,4742663.4949999973],[-8827640.3763999995,4742649.6719999984],[-8827633.3498999998,4742617.7039000019],[-8827613.5332999993,4742506.9017999992],[-8827607.3181999996,4742483.7004000023],[-8827599.4485999998,4742465.9209999964],[-8827584.3423999995,4742442.4465999976],[-8827544.6190000009,4742402.1406000033],[-8827522.8027999997,4742324.2303000018],[-8827494.5249000005,4742258.935999997],[-8827479.2869000006,4742232.7835000008],[-8827448.5244999994,4742192.9482999966],[-8827411.2763,4742165.4974000007],[-8827384.7690999992,4742133.9104999974],[-8827359.4142000005,4742112.1899999976],[-8827327.6690999996,4742094.0195999965],[-8827231.7207999993,4742052.8012000024],[-8827193.2839000002,4742041.8940000013],[-8827180.5064000003,4742036.3945999965],[-8827165.8883999996,4742024.8850999996],[-8827031.1649999991,4741998.733099997],[-8826885.0694999993,4741943.2137999982],[-8826880.4464999996,4741938.3941000029]]]},"properties":{"objectid":1287130,"doc_id":" ","mine_id":" ","mine_name":null,"company_name":null,"state_permit":null,"wvges_comment":null,"map_year":null,"code":"UFP","seam":"Upper_Freeport","zsort":4015,"type":2}},{"type":"Feature","id":1287266,"geometry":{"type":"Polygon","coordinates":[[[-8824428.8933000006,4742467.0363999978],[-8824440.4580000006,4742481.7889999971],[-8824449.2620000001,4742485.5270000026],[-8824448.5872000009,4742499.3652999997],[-8824499.3147999998,4742535.2031999975],[-8824564.2934000008,4742551.7973000035],[-8824632.5822999999,4742540.5445000008],[-8824680.4339000005,4742507.9751000032],[-8824693.7028000001,4742467.7870000005],[-8824668.2581999991,4742417.0820000023],[-8824624.6159000006,4742374.3971000016],[-8824610.1643000003,4742330.8862999976],[-8824651.8811000008,4742254.9660999998],[-8824740.0691,4742146.4513999969],[-8824822.3624000009,4742055.9688000008],[-8824904.4432999995,4741976.6300999969],[-8824965.2817000002,4741917.8105000034],[-8825041.4154000003,4741859.2826000005],[-8825104.9013999999,4741807.4966999963],[-8825126.6300000008,4741760.4886000007],[-8825142.1173999999,4741675.7035999969],[-8825189.2178000007,4741609.6521999985],[-8825212.6394999996,4741545.930399999],[-8825214.7158000004,4741504.8847000003],[-8825306.6334000006,4741481.8103],[-8825337.8980999999,4741179.6036000028],[-8825345.5868999995,4741160.925999999],[-8825374.3901000004,4741090.9578000009],[-8825376.7699999996,4741085.1765000001],[-8825398.0660999995,4741033.4438000023],[-8825402.3823000006,4741022.9587000012],[-8825417.2481999993,4740986.8457999974],[-8825419.8147999998,4740980.6108999997],[-8825421.1081000008,4740977.4694999978],[-8825434.3250999991,4740945.3620999977],[-8825567.1901999991,4740675.8945999965],[-8825617.8170999996,4740430.5283000022],[-8825730.0405999999,4740170.942900002],[-8825879.3636000007,4740112.1984999999],[-8825937.4035,4740013.7449000031],[-8825973.1610000003,4740016.4778999984],[-8826048.7399000004,4739802.3872999996],[-8826031.7780000009,4739617.3342999965],[-8825977.7041999996,4739503.4189999998],[-8825923.4386999998,4739399.7637000009],[-8825907.9357999992,4739352.1300000027],[-8825888.6489000004,4739292.8691999987],[-8825846.1417999994,4739162.2611000016],[-8825772.0247000009,4739027.445100002],[-8825725.6614999995,4739047.0888999999],[-8825627.9055000003,4739009.2798999995],[-8825572.2291000001,4738782.4915999994],[-8825626.3100000005,4738624.4609000012],[-8825719.9989999998,4738533.8850999996],[-8825809.9300999995,4738371.4073000029],[-8826041.6316999998,4738278.3189999983],[-8826249.2991000004,4738201.4504000023],[-8826358.7227999996,4738263.8029000014],[-8826684.2030999996,4738346.9188999981],[-8826922.1765999999,4738464.2897000015],[-8827216.5392000005,4738572.4572999999],[-8827704.5493000001,4738709.9134000018],[-8827893.1784000006,4738733.9805999994],[-8828001.7920999993,4738664.1863999963],[-8828098.4699000008,4738686.5238000005],[-8828141.6788999997,4738836.1318999976],[-8828041.3720999993,4739008.7057999969],[-8827820.4613000005,4739071.2629999965],[-8827620.1739000008,4739123.9411000013],[-8827548.2704000007,4739143.1133000031],[-8827579.2458999995,4739400.2566],[-8827601.8232000005,4739559.7520999983],[-8827640.4932000004,4739678.5012999997],[-8827934.0888999999,4739555.7329000011],[-8828315.2896999996,4739393.5489000008],[-8828602.1856999993,4739195.7968000025],[-8828607.2683000006,4739186.6507999972],[-8828638.0810000002,4739036.0200999975],[-8828630.2518000007,4738891.701700002],[-8828575.6065999996,4738816.8360000029],[-8828553.3836000003,4738693.3491000012],[-8828524.6161000002,4738545.1273000017],[-8828424.3978000004,4738472.9267999977],[-8828388.2694000006,4738451.5214999989],[-8828358.3460000008,4738408.9774999991],[-8828349.6130999997,4738402.0581],[-8828330.1565000005,4738394.1943999976],[-8828317.5477000009,4738379.8293000013],[-8828303.3205999993,4738369.1630999967],[-8828297.3747000005,4738352.7317999974],[-8828241.7960000001,4738311.2776999995],[-8828190.7228999995,4738232.9651999995],[-8828153.0750999991,4738171.2907999977],[-8827951.9505000003,4738047.5604000017],[-8827763.8805999998,4737980.6675999984],[-8827755.5768999998,4737981.1008000001],[-8827706.8167000003,4737988.2122000009],[-8827681.0886000004,4737987.0200999975],[-8827651.5932,4737979.6199999973],[-8827620.9992999993,4737986.691200003],[-8827533.7462000009,4737970.9861999974],[-8827443.4520999994,4737930.6111000031],[-8827352.6335000005,4737918.3535000011],[-8827251.1164999995,4737916.4416000023],[-8827131.8993999995,4737924.7432999983],[-8827026.8160999995,4737926.2779999971],[-8826924.2419000007,4737911.0168000013],[-8826891.5851000007,4737914.7309999987],[-8826854.3377,4737908.9594999999],[-8826810.0431999993,4737908.1231999993],[-8826724.5681999996,4737901.1369000003],[-8826721.3096999992,4737903.2501000017],[-8826694.6559999995,4737898.9117999971],[-8826619.6967999991,4737915.5865999982],[-8826546.8203999996,4737911.5275000036],[-8826464.4409999996,4737925.2392000034],[-8826459.0741000008,4737927.0991000012],[-8826426.0603999998,4737945.9918000028],[-8826368.0632000007,4737974.2634000033],[-8826355.1417999994,4737976.7267000005],[-8826288.4188000001,4737979.8728],[-8826264.9909000006,4737978.0609000027],[-8826226.5220999997,4737969.7261999995],[-8826200.7238999996,4737972.2817000002],[-8826174.1839000005,4737979.3473000005],[-8826140.3132000007,4737992.2908999994],[-8826091.6235000007,4738025.0232999995],[-8826044.8257999998,4738046.5556999967],[-8826031.8826000001,4738050.1718000025],[-8826005.8418000005,4738065.6084999964],[-8825967.0023999996,4738076.9677999988],[-8825915.3239999991,4738086.3966000006],[-8825902.3427000009,4738092.0301000029],[-8825876.5628999993,4738093.5878000036],[-8825850.7305999994,4738097.9279000014],[-8825806.9864000008,4738110.3408999965],[-8825772.8625000007,4738130.6670999974],[-8825694.9272000007,4738166.9394999966],[-8825642.7562000006,4738202.4716000035],[-8825599.4767000005,4738223.3730999976],[-8825571.9876000006,4738238.9943000004],[-8825530.8170999996,4738268.6216000021],[-8825408.3494000006,4738421.3849000037],[-8825337.4484000001,4738532.9372000024],[-8825300.7614999991,4738609.807599999],[-8825298.1974999998,4738648.5433000028],[-8825299.6327,4738686.5772999972],[-8825309.7117999997,4738726.3319000006],[-8825308.7826000005,4738739.2426000014],[-8825317.5409999993,4738778.1943000033],[-8825324.1541000009,4738797.7533000037],[-8825326.5070999991,4738955.9575999975],[-8825358.8622999992,4739097.2294000015],[-8825419.0274,4739249.5815000013],[-8825483.3584000003,4739366.8496000022],[-8825540.2247000001,4739508.5926999971],[-8825569.8786999993,4739607.6208000034],[-8825567.9563999996,4739709.566200003],[-8825558.8325999994,4739821.9258999974],[-8825529.2980000004,4739902.248300001],[-8825490.0547000002,4739940.1856999993],[-8825462.9428000003,4739980.5583999977],[-8825447.7387000006,4740023.6191999987],[-8825444.4456999991,4740053.6640999988],[-8825442.3271999992,4740056.5031000003],[-8825441.7522999998,4740086.9702000022],[-8825416.2479999997,4740139.2365999967],[-8825376.8706999999,4740184.2056000009],[-8825359.9049999993,4740192.3229999989],[-8825305.2506000008,4740267.2459999993],[-8825240.0344999991,4740382.0601999983],[-8825206.0639999993,4740511.5380999967],[-8825137.7239999995,4740788.9790999964],[-8825125.1640000008,4740814.9937999994],[-8825099.2750000004,4740906.3418999985],[-8825076.1153999995,4741035.8664000034],[-8825066.1459999997,4741106.7251000032],[-8825022.9699000008,4741199.4787999988],[-8824987.3169999998,4741259.4512000009],[-8824974.6171000004,4741292.1345999986],[-8824988.0263999999,4741313.1855999976],[-8824990.8542999998,4741346.1653999984],[-8824958.2906999998,4741425.2599000037],[-8824934.2551000006,4741509.7163999975],[-8824904.9672999997,4741600.1335999966],[-8824807.3773999996,4741773.6187999994],[-8824696.6206,4741887.576700002],[-8824628.2180000003,4741984.7568999976],[-8824612.4104999993,4742079.4255999997],[-8824537.6019000001,4742144.8273999989],[-8824490.7420000006,4742214.2810000032],[-8824441.4791999999,4742410.3203999996],[-8824428.8933000006,4742467.0363999978]]]},"properties":{"objectid":1287266,"doc_id":" ","mine_id":" ","mine_name":null,"company_name":null,"state_permit":null,"wvges_comment":null,"map_year":null,"code":"UFP","seam":"Upper_Freeport","zsort":4015,"type":2}},{"type":"Feature","id":1287318,"geometry":{"type":"Polygon","coordinates":[[[-8823894.5032000002,4743778.2440000027],[-8823897.2497000005,4743780.0445000008],[-8823899.4616,4743781.494599998],[-8823897.5164000001,4743788.933600001],[-8823924.8161999993,4743814.5636000037],[-8823973.2971000001,4743822.4782999977],[-8824009.8045000006,4743802.2501000017],[-8824052.2993000001,4743759.8113999963],[-8824107.3646000009,4743713.4356999993],[-8824159.2895999998,4743686.5309000015],[-8824209.6380000003,4743669.3612999991],[-8824242.4222999997,4743625.3522000015],[-8824263.3774999995,4743546.2326999977],[-8824270.6625999995,4743455.6895999983],[-8824270.8875999991,4743370.5996999964],[-8824262.1718000006,4743317.4288000017],[-8824234.0910999998,4743259.6965999976],[-8824226.6075999998,4743214.9051000029],[-8824227.4552999996,4743170.2863000035],[-8824256.1316,4743123.4069999978],[-8824282.4500999991,4743054.1590000018],[-8824331.2316999994,4742972.7956999987],[-8824369.9201999996,4742910.7563999966],[-8824386.0517999995,4742866.431400001],[-8824372.7668999992,4742834.0891999975],[-8824339.8128999993,4742813.9289000034],[-8824287.0318999998,4742812.9184999987],[-8824238.0340999998,4742817.6455999985],[-8824235.5237000007,4742817.8878000006],[-8824162.4633000009,4742897.4494000003],[-8824058.2234000005,4743036.1618999988],[-8824030.7647999991,4743190.4188999981],[-8824027.6214000005,4743355.6979999989],[-8823946.0183000006,4743593.3522000015],[-8823894.5032000002,4743778.2440000027]]]},"properties":{"objectid":1287318,"doc_id":" ","mine_id":" ","mine_name":null,"company_name":null,"state_permit":null,"wvges_comment":null,"map_year":null,"code":"UFP","seam":"Upper_Freeport","zsort":4015,"type":2}}]}